STARLINK-11085 [DTC]    
1 59425C 24065E   26111.79284722  .00049622  00000+0  40915-3 0  1114
2 59425  53.1567 241.3114 0000824  93.2917 285.8274 15.69661427    19
STARLINK-11089 [DTC]    
1 59426C 24065F   26111.80534722  .00085424  00000+0  70433-3 0  1113
2 59426  53.1570 241.5486 0000881  87.3899 223.7193 15.69644475    19
STARLINK-31757          
1 59427C 24065G   26111.80604167  .00039388  00000+0  13262-2 0  1119
2 59427  53.1587  81.3706 0001575  93.1314 183.2662 15.30203823    18
STARLINK-31773          
1 59429C 24065J   26111.75326389  .00002181  00000+0  73526-4 0  1114
2 59429  53.1586  83.5360 0001216  92.7246 354.5206 15.30183099    19
STARLINK-31772          
1 59430C 24065K   26111.84423611  .00033334  00000+0  11236-2 0  1114
2 59430  53.1578  81.0074 0001288  97.0826 117.0480 15.30171200    15
STARLINK-31613          
1 59431C 24065L   26111.79909722  .00031903  00000+0  10756-2 0  1117
2 59431  53.1584  81.3580 0001510  93.1663 162.3735 15.30165120    12
STARLINK-31780          
1 59432C 24065M   26111.80465278  .00053154  00000+0  17899-2 0  1110
2 59432  53.1591  81.4088 0001354  81.9800 163.3723 15.30193092    16
STARLINK-31740          
1 59433C 24065N   26111.84006944  .00036154  00000+0  12177-2 0  1111
2 59433  53.1586  83.1101 0001104  91.6067 125.6545 15.30196281    18
STARLINK-31580          
1 59434C 24065P   26111.76784722  .00038295  00000+0  12910-2 0  1113
2 59434  53.1581  83.5371 0001258  95.7560  36.9678 15.30165384    11
STARLINK-31696          
1 59435C 24065Q   26111.80604167  .00042558  00000+0  14349-2 0  1118
2 59435  53.1581  81.2904 0001453  96.1955 215.0722 15.30158257    10
STARLINK-31700          
1 59436C 24065R   26111.81090278  .00030370  00000+0  10238-2 0  1114
2 59436  53.1578  81.1969 0001404 101.8863 271.0687 15.30167462    15
STARLINK-31706          
1 59437C 24065S   26111.78729167  .00037222  00000+0  12549-2 0  1117
2 59437  53.1584  83.3722 0001267  91.8364 188.7711 15.30164641    13
STARLINK-31711          
1 59438C 24065T   26111.81993056  .00033838  00000+0  11409-2 0  1115
2 59438  53.1578  81.1897 0001300  97.0245 308.2438 15.30161957    12
STARLINK-31708          
1 59439C 24065U   26111.75812500  .00035946  00000+0  12117-2 0  1112
2 59439  53.1582  81.3723 0001322  96.1249  20.8315 15.30167991    11
STARLINK-31693          
1 59441C 24065W   26111.81715278  .00043827  00000+0  14774-2 0  1114
2 59441  53.1592  81.3723 0001630  86.3682 216.3439 15.30163910    15
STARLINK-31622          
1 59456C 24068B   26111.79979167 -.00034675  00000+0 -12556-2 0  1118
2 59456  42.9996 151.2686 0001635 275.0088  75.8923 15.27602873    10
STARLINK-31319          
1 59457C 24068C   26111.82131944 -.00034405  00000+0 -12464-2 0  1115
2 59457  43.0002 147.3697 0001541 267.2803 333.9276 15.27589289    17
STARLINK-31625          
1 59458C 24068D   26111.81229167 -.00028254  00000+0 -10238-2 0  1112
2 59458  43.0002 151.0578 0001789 273.7564 202.5060 15.27578398    19
STARLINK-31631          
1 59459C 24068E   26111.80395833 -.00036878  00000+0 -13357-2 0  1112
2 59459  43.0010 147.2842 0001682 269.2688 314.1658 15.27595663    16
STARLINK-31620          
1 59460C 24068F   26111.83312500 -.00031624  00000+0 -11453-2 0  1116
2 59460  42.9999 147.4046 0001464 275.9258 347.8168 15.27596829    19
STARLINK-31511          
1 59462C 24068H   26111.76506944 -.00029786  00000+0 -10788-2 0  1113
2 59462  42.9995 151.4124 0001499 271.7925 269.1862 15.27595091    19
STARLINK-31364          
1 59463C 24068J   26111.79562500 -.00030265  00000+0 -10955-2 0  1117
2 59463  43.0000 147.4299 0001600 272.1612 222.9613 15.27613135    10
STARLINK-31597          
1 59464C 24068K   26111.83243056 -.00032961  00000+0 -11937-2 0  1111
2 59464  43.0000 150.8912 0001505 274.5599 333.7960 15.27598768    15
STARLINK-31621          
1 59465C 24068L   26111.75118056 -.00021153  00000+0 -76620-3 0  1116
2 59465  42.9999 151.4497 0001379 277.4478 208.2901 15.27587082    11
STARLINK-31462          
1 59466C 24068M   26111.82479167 -.00169650  00000+0 -61397-2 0  1117
2 59466  43.0000 150.8188 0001489 266.4181 342.4986 15.27689206    13
STARLINK-31592          
1 59467C 24068N   26111.83590278 -.00029842  00000+0 -10810-2 0  1118
2 59467  42.9997 151.1157 0001525 268.7119 259.8118 15.27590751    18
STARLINK-31267          
1 59468C 24068P   26111.82618056 -.00026819  00000+0 -97191-3 0  1112
2 59468  42.9995 146.6885 0001404 265.9076 270.9634 15.27573837    14
STARLINK-31381          
1 59469C 24068Q   26111.80743056 -.00028549  00000+0 -10340-2 0  1112
2 59469  42.9998 147.6517 0001405 268.3181 171.5013 15.27595973    18
STARLINK-31546          
1 59470C 24068R   26111.77409722 -.00030521  00000+0 -11062-2 0  1114
2 59470  42.9999 147.5833 0001756 277.5462  84.9349 15.27571460    18
STARLINK-31575          
1 59471C 24068S   26111.82479167 -.00193300  00000+0 -70035-2 0  1111
2 59471  43.0003 147.3976 0001611 269.6247 329.5582 15.27664117    15
STARLINK-31610          
1 59473C 24068U   26111.81506944 -.00035627  00000+0 -12908-2 0  1118
2 59473  43.0015 150.7870 0001757 276.8548 320.9088 15.27587144    16
STARLINK-31581          
1 59474C 24068V   26111.83243056 -.00026892  00000+0 -97394-3 0  1110
2 59474  43.0003 143.7503 0001432 278.8187  56.2710 15.27594803    11
STARLINK-31566          
1 59475C 24068W   26111.83243056 -.00032503  00000+0 -11774-2 0  1114
2 59475  43.0006 150.7369 0001649 266.6574  45.4798 15.27588965    16
STARLINK-31515          
1 59476C 24068X   26111.77826389 -.00032187  00000+0 -11662-2 0  1118
2 59476  42.9999 151.1440 0001558 279.3813  52.0839 15.27582845    18
STARLINK-31531          
1 59477C 24068Y   26111.75534722  .00004916  00000+0  17807-3 0  1119
2 59477  43.0035  96.1499 0001430 274.8974 133.5044 15.27574479    18
STARLINK-31753          
1 59484C 24071A   26111.81506944  .00024284  00000+0  87972-3 0  1113
2 59484  43.0003  96.2693 0001436 270.8339 324.7741 15.27560780    13
STARLINK-31733          
1 59486C 24071C   26111.79562500  .00020266  00000+0  73402-3 0  1111
2 59486  43.0033  95.9912 0001616 284.5805   6.6816 15.27568451    10
STARLINK-31657          
1 59487C 24071D   26111.83659722  .00033428  00000+0  12106-2 0  1117
2 59487  43.0019  95.9792 0001567 259.3792 165.4836 15.27565020    16
STARLINK-31754          
1 59488C 24071E   26111.83381944  .00025312  00000+0  91681-3 0  1115
2 59488  43.0013 103.6540 0001129 263.8983 199.7271 15.27565831    18
STARLINK-31638          
1 59489C 24071F   26111.80604167  .00023288  00000+0  84346-3 0  1118
2 59489  43.0022  96.1311 0001549 268.3342 355.3718 15.27568042    19
STARLINK-31670          
1 59490C 24071G   26111.79145833  .00004638  00000+0  16798-3 0  1112
2 59490  43.0031 107.7395 0001617 272.7897 164.6044 15.27578685    19
STARLINK-31712          
1 59491C 24071H   26111.83034722  .00022357  00000+0  81059-3 0  1112
2 59491  43.0028 107.5156 0001600 275.8955   8.6472 15.27534418    18
STARLINK-31684          
1 59492C 24071J   26111.80673611  .00017304  00000+0  62683-3 0  1114
2 59492  43.0020 103.8569 0001314 261.2921  32.0126 15.27566014    16
STARLINK-31678          
1 59493C 24071K   26111.80604167  .00014467  00000+0  52405-3 0  1113
2 59493  43.0031 103.9611 0001336 266.9824 340.0315 15.27568670    18
STARLINK-31744          
1 59494C 24071L   26111.79840278  .00010560  00000+0  38253-3 0  1112
2 59494  43.0022 103.9544 0001416 269.8762 316.3213 15.27569334    17
STARLINK-31719          
1 59495C 24071M   26111.82895833 -.00071631  00000+0 -25976-2 0  1119
2 59495  42.9995  96.3643 0001156 272.0295 329.3048 15.27575131    10
STARLINK-31728          
1 59496C 24071N   26111.84145833  .00032841  00000+0  11895-2 0  1113
2 59496  43.0012  96.0139 0001478 261.9008 161.4433 15.27562864    18
STARLINK-31720          
1 59497C 24071P   26111.76715278  .00003235  00000+0  11719-3 0  1112
2 59497  43.0025  96.9348 0001309 259.1137 269.9645 15.27571053    18
STARLINK-31731          
1 59498C 24071Q   26111.82479167  .00030241  00000+0  10959-2 0  1115
2 59498  43.0032  95.8075 0001351 267.0478 191.8509 15.27547412    19
STARLINK-31742          
1 59499C 24071R   26111.83451389  .00030097  00000+0  10912-2 0  1111
2 59499  43.0027  95.8686 0001580 250.8894 212.1386 15.27531469    13
STARLINK-31512          
1 59500C 24071S   26111.79006944  .00049362  00000+0  17873-2 0  1110
2 59500  43.0008  56.1849 0001212 263.1651  68.7277 15.27564260    15
STARLINK-31458          
1 59501C 24071T   26111.81229167  .00028407  00000+0  10285-2 0  1115
2 59501  43.0024  96.0625 0000960 296.2711  15.8936 15.27577666    11
STARLINK-31357          
1 59502C 24071U   26111.79631944  .00023399  00000+0  84754-3 0  1111
2 59502  43.0006  96.6472 0001332 260.9454 118.2340 15.27566444    13
STARLINK-31508          
1 59503C 24071V   26111.78590278  .00016790  00000+0  60817-3 0  1116
2 59503  43.0018  96.7573 0001420 266.9899  33.6109 15.27567563    13
STARLINK-31535          
1 59504C 24071W   26111.82548611  .00026004  00000+0  94201-3 0  1119
2 59504  43.0031 103.8979 0001526 263.9085  68.9609 15.27561081    15
STARLINK-31533          
1 59505C 24071X   26111.75534722  .00001177  00000+0  42617-4 0  1119
2 59505  43.0029  97.0316 0002031 280.3630 169.4918 15.27599473    19
STARLINK-31524          
1 59506C 24071Y   26111.79631944  .00147590  00000+0  53372-2 0  1116
2 59506  43.0023  89.3591 0001212 248.1910 203.6653 15.27557424    13
STARLINK-31635          
1 59511C 24073A   26111.77548611  .00033129  00000+0  11999-2 0  1111
2 59511  43.0029  74.3221 0001237 262.7997 304.9456 15.27563390    18
STARLINK-31650          
1 59512C 24073B   26111.83868056  .00043569  00000+0  15780-2 0  1118
2 59512  43.0012  74.4324 0001380 263.2432  94.3366 15.27558536    11
